ASTRA 2E                
1 39285U 13056A   26188.57844481  .00000165  00000+0  00000+0 0  9998
2 39285   0.0675 323.0903 0002549 151.6046  47.5764  1.00270044 46629
FM-6                    
1 39360U 13058A   26187.90803023  .00000000  00000+0  00000+0 0  9995
2 39360   0.0450  67.8318 0002811 116.6951 310.9204  1.00271504 46274
RADUGA-1M 3             
1 39375U 13062A   26188.29455583  .00000165  00000+0  00000+0 0  9995
2 39375   6.0060  72.0965 0001842 274.9600  79.2301  1.00272157 46303
SES-8                   
1 39460U 13071A   26188.07961659 -.00000254  00000+0  00000+0 0  9992
2 39460   0.0561 263.9405 0002835 203.2619 301.5158  1.00271044 44624
INMARSAT 5-F1           
1 39476U 13073A   26188.08618388  .00000042  00000+0  00000+0 0  9994
2 39476   0.0200  35.5736 0000594 311.0910  32.0609  1.00273396 45779
TKSAT-1 (TUPAC KATARI)  
1 39481U 13075A   26188.55547803 -.00000180  00000+0  00000+0 0  9991
2 39481   0.0426 122.3515 0002531 345.3005 290.6378  1.00273184 45807
EXPRESS-AM5             
1 39487U 13077A   26188.60054773 -.00000265  00000+0  00000+0 0  9998
2 39487   0.0253 280.9833 0000057 143.0232 217.7918  1.00271751 46563
GSAT-14                 
1 39498U 14001A   26188.62962209 -.00000061  00000+0  00000+0 0  9996
2 39498   0.0164 284.1652 0001531 285.4732  16.5957  1.00270749 45580
THAICOM 6               
1 39500U 14002A   26188.37443390 -.00000105  00000+0  00000+0 0  9997
2 39500   0.0686 105.2656 0004605  16.8242  16.5448  1.00269975 45660
TDRS 12                 
1 39504U 14004A   26188.49333419 -.00000257  00000+0  00000+0 0  9994
2 39504   3.9963  19.3996 0004026 202.8052 199.9307  1.00275467 44481
ABS-2                   
1 39508U 14006A   26188.51632440 -.00000071  00000+0  00000+0 0  9993
2 39508   0.0344  78.2304 0003512  12.5929  95.4528  1.00271326 45487
ATHENA-FIDUS            
1 39509U 14006B   26188.43755676  .00000169  00000+0  00000+0 0  9999
2 39509   0.0386  96.4765 0001463  25.9317 358.3147  1.00272433 45296
TURKSAT 4A              
1 39522U 14007A   26188.58104483  .00000161  00000+0  00000+0 0  9997
2 39522   0.0752 283.0770 0000913 333.5329 280.0989  1.00270646 45174
EXPRESS-AT1             
1 39612U 14010A   26188.51433105  .00000016  00000+0  00000+0 0  9999
2 39612   0.3067  85.5167 0004570  49.5932  40.3937  1.00308424 45028
EXPRESS-AT2             
1 39613U 14010B   26188.58390484  .00000094  00000+0  00000+0 0  9995
2 39613   0.0166 302.4578 0000285 355.8824 253.4159  1.00270530 44708
AMAZONAS 4A             
1 39616U 14011A   26188.55799138 -.00000237  00000+0  00000+0 0  9995
2 39616   0.0619 205.4785 0004654 287.1181 279.8175  1.00272360 44919
ASTRA 5B                
1 39617U 14011B   26188.57740480  .00000152  00000+0  00000+0 0  9999
2 39617   0.0680 308.6684 0001906 160.5668  47.6682  1.00270811 44871
IRNSS-1B                
1 39635U 14017A   26186.73010079  .00000137  00000+0  00000+0 0  9998
2 39635  28.8929 240.0829 0022969 195.5386 165.9835  1.00272765 44988
LUCH-5V                 
1 39727U 14023A   26188.59156642 -.00000256  00000+0  00000+0 0  9993
2 39727   5.1801  69.5408 0002698  65.4113  98.2544  1.00267767 44569
KAZSAT-3                
1 39728U 14023B   26188.58433817  .00000076  00000+0  00000+0 0  9994
2 39728   0.0089 348.2038 0000120 289.6448 276.5661  1.00272092 42664
EUTELSAT 3B             
1 39773U 14030A   26188.57341813  .00000036  00000+0  00000+0 0  9991
2 39773   0.0636 341.7035 0003935 127.6695  25.7006  1.00274073 44276
ASIASAT 8 (AMOS-7)      
1 40107U 14046A   26188.62067775 -.00000318  00000+0  00000+0 0  9993
2 40107   0.0217 292.3238 0001440 174.7232 147.2989  1.00271497102350
ASIASAT 6               
1 40141U 14052A   26188.59650645 -.00000347  00000+0  00000+0 0  9990
2 40141   0.0126 311.8207 0000752 189.2731 119.1285  1.00271074 43284
OPTUS 10                
1 40146U 14054A   26188.59756084 -.00000132  00000+0  00000+0 0  9993
2 40146   0.0632 298.7529 0001981 169.6809 188.2437  1.00269690 43236
MEASAT-3B               
1 40147U 14054B   26188.59903656 -.00000226  00000+0  00000+0 0  9997
2 40147   0.0298  33.0579 0002540  57.9944 141.6368  1.00269773 43116
HIMAWARI-8              
1 40267U 14060A   26188.60063440 -.00000260  00000+0  00000+0 0  9995
2 40267   0.0378 276.9306 0000892 204.1337 161.3961  1.00270429 42964
IRNSS-1C                
1 40269U 14061A   26188.30408921 -.00000150  00000+0  00000+0 0  9990
2 40269   6.5677  88.5481 0022126   4.6264  24.5735  1.00273588 42896
INTELSAT 30 (IS-30)     
1 40271U 14062A   26188.55391803 -.00000135  00000+0  00000+0 0  9994
2 40271   0.0162  45.6651 0001324 344.1934   0.0276  1.00269626  6991
ARSAT 1                 
1 40272U 14062B   26187.77441418 -.00000245  00000+0  00000+0 0  9998
2 40272   0.0288 303.9410 0001918 159.4802  28.3157  1.00271293 42820
EUTELSAT 53A            
1 40277U 14064A   26188.68083628  .00000112  00000+0  00000+0 0  9993
2 40277   0.0197 296.1519 0001418 265.0446  22.5513  1.00280024 41777
GSAT-16                 
1 40332U 14078A   26188.58373150  .00000100  00000+0  00000+0 0  9998
2 40332   0.0364 264.8351 0007466 185.9463  99.9835  1.00271181 42319
DIRECTV 14              
1 40333U 14078B   26188.55313802 -.00000110  00000+0  00000+0 0  9996
2 40333   0.0103  35.6348 0000214 302.4929  47.2811  1.00273531 42241
