OBJECT_NAME,OBJECT_ID,EPOCH,MEAN_MOTION,ECCENTRICITY,INCLINATION,RA_OF_ASC_NODE,ARG_OF_PERICENTER,MEAN_ANOMALY,EPHEMERIS_TYPE,CLASSIFICATION_TYPE,NORAD_CAT_ID,ELEMENT_SET_NO,REV_AT_EPOCH,BSTAR,MEAN_MOTION_DOT,MEAN_MOTION_DDOT
ASTRA 2E,2013-056A,2026-07-07T13:52:57.631584,1.00270044,.00025491,0.0675,323.0903,151.6046,47.5764,0,U,39285,999,4662,0,.165E-5,0
FM-6,2013-058A,2026-07-06T21:47:33.811872,1.00271504,.00028115,0.0450,67.8318,116.6951,310.9204,0,U,39360,999,4627,0,0,0
RADUGA-1M 3,2013-062A,2026-07-07T07:04:09.623712,1.00272157,.00018423,6.0060,72.0965,274.9600,79.2301,0,U,39375,999,4630,0,.165E-5,0
SES-8,2013-071A,2026-07-07T01:54:38.873376,1.00271044,.0002835,0.0561,263.9405,203.2619,301.5158,0,U,39460,999,4462,0,-.254E-5,0
INMARSAT 5-F1,2013-073A,2026-07-07T02:04:06.287232,1.00273396,.00005949,0.0200,35.5736,311.0910,32.0609,0,U,39476,999,4577,0,.42E-6,0
TKSAT-1 (TUPAC KATARI),2013-075A,2026-07-07T13:19:53.301792,1.00273184,.00025318,0.0426,122.3515,345.3005,290.6378,0,U,39481,999,4580,0,-.18E-5,0
EXPRESS-AM5,2013-077A,2026-07-07T14:24:47.323872,1.00271751,.0000057,0.0253,280.9833,143.0232,217.7918,0,U,39487,999,4656,0,-.265E-5,0
GSAT-14,2014-001A,2026-07-07T15:06:39.348576,1.00270749,.00015316,0.0164,284.1652,285.4732,16.5957,0,U,39498,999,4558,0,-.61E-6,0
THAICOM 6,2014-002A,2026-07-07T08:59:11.088960,1.00269975,.00046053,0.0686,105.2656,16.8242,16.5448,0,U,39500,999,4566,0,-.105E-5,0
TDRS 12,2014-004A,2026-07-07T11:50:24.074016,1.00275467,.00040266,3.9963,19.3996,202.8052,199.9307,0,U,39504,999,4448,0,-.257E-5,0
ABS-2,2014-006A,2026-07-07T12:23:30.428160,1.00271326,.00035121,0.0344,78.2304,12.5929,95.4528,0,U,39508,999,4548,0,-.71E-6,0
ATHENA-FIDUS,2014-006B,2026-07-07T10:30:04.904064,1.00272433,.00014633,0.0386,96.4765,25.9317,358.3147,0,U,39509,999,4529,0,.169E-5,0
TURKSAT 4A,2014-007A,2026-07-07T13:56:42.273312,1.00270646,.00009133,0.0752,283.0770,333.5329,280.0989,0,U,39522,999,4517,0,.161E-5,0
EXPRESS-AT1,2014-010A,2026-07-07T12:20:38.202720,1.00308424,.00045706,0.3067,85.5167,49.5932,40.3937,0,U,39612,999,4502,0,.16E-6,0
EXPRESS-AT2,2014-010B,2026-07-07T14:00:49.378176,1.00270530,.00002858,0.0166,302.4578,355.8824,253.4159,0,U,39613,999,4470,0,.94E-6,0
AMAZONAS 4A,2014-011A,2026-07-07T13:23:30.455232,1.00272360,.00046546,0.0619,205.4785,287.1181,279.8175,0,U,39616,999,4491,0,-.237E-5,0
ASTRA 5B,2014-011B,2026-07-07T13:51:27.774720,1.00270811,.00019069,0.0680,308.6684,160.5668,47.6682,0,U,39617,999,4487,0,.152E-5,0
IRNSS-1B,2014-017A,2026-07-05T17:31:20.708256,1.00272765,.00229695,28.8929,240.0829,195.5386,165.9835,0,U,39635,999,4498,0,.137E-5,0
LUCH-5V,2014-023A,2026-07-07T14:11:51.338688,1.00267767,.00026988,5.1801,69.5408,65.4113,98.2544,0,U,39727,999,4456,0,-.256E-5,0
KAZSAT-3,2014-023B,2026-07-07T14:01:26.817888,1.00272092,.00001208,0.0089,348.2038,289.6448,276.5661,0,U,39728,999,4266,0,.76E-6,0
EUTELSAT 3B,2014-030A,2026-07-07T13:45:43.326432,1.00274073,.00039357,0.0636,341.7035,127.6695,25.7006,0,U,39773,999,4427,0,.36E-6,0
ASIASAT 8 (AMOS-7),2014-046A,2026-07-07T14:53:46.557600,1.00271497,.00014403,0.0217,292.3238,174.7232,147.2989,0,U,40107,999,10235,0,-.318E-5,0
ASIASAT 6,2014-052A,2026-07-07T14:18:58.157280,1.00271074,.00007528,0.0126,311.8207,189.2731,119.1285,0,U,40141,999,4328,0,-.347E-5,0
OPTUS 10,2014-054A,2026-07-07T14:20:29.256576,1.00269690,.00019815,0.0632,298.7529,169.6809,188.2437,0,U,40146,999,4323,0,-.132E-5,0
MEASAT-3B,2014-054B,2026-07-07T14:22:36.758784,1.00269773,.00025402,0.0298,33.0579,57.9944,141.6368,0,U,40147,999,4311,0,-.226E-5,0
HIMAWARI-8,2014-060A,2026-07-07T14:24:54.812160,1.00270429,.00008929,0.0378,276.9306,204.1337,161.3961,0,U,40267,999,4296,0,-.26E-5,0
IRNSS-1C,2014-061A,2026-07-07T07:17:53.307744,1.00273588,.0022126,6.5677,88.5481,4.6264,24.5735,0,U,40269,999,4289,0,-.15E-5,0
INTELSAT 30 (IS-30),2014-062A,2026-07-07T13:17:38.517792,1.00269626,.00013247,0.0162,45.6651,344.1934,0.0276,0,U,40271,999,699,0,-.135E-5,0
ARSAT 1,2014-062B,2026-07-06T18:35:09.385152,1.00271293,.00019183,0.0288,303.9410,159.4802,28.3157,0,U,40272,999,4282,0,-.245E-5,0
EUTELSAT 53A,2014-064A,2026-07-07T16:20:24.254592,1.00280024,.00014187,0.0197,296.1519,265.0446,22.5513,0,U,40277,999,4177,0,.112E-5,0
GSAT-16,2014-078A,2026-07-07T14:00:34.401600,1.00271181,.00074662,0.0364,264.8351,185.9463,99.9835,0,U,40332,999,4231,0,.1E-5,0
DIRECTV 14,2014-078B,2026-07-07T13:16:31.124928,1.00273531,.00002147,0.0103,35.6348,302.4929,47.2811,0,U,40333,999,4224,0,-.11E-5,0
